STARLINK-36888          
1 68004U 26039U   26065.83334490 -.01622472  75496-3 -40461-2 0  9998
2 68004  42.9980  72.5043 0001868 263.9158  28.4108 15.94973987  2412
STARLINK-36910          
1 68005U 26039V   26065.83334490 -.01632827  76605-3 -40108-2 0  9995
2 68005  42.9977  72.4921 0001926 265.4540  31.5430 15.95255489  2414
STARLINK-36889          
1 68006U 26039W   26065.83334490 -.01624134  76063-3 -39316-2 0  9995
2 68006  42.9978  72.4810 0001820 267.4205  33.7414 15.95524070  2417
STARLINK-36592          
1 68007U 26039X   26065.83334490 -.01627942  76500-3 -39114-2 0  9998
2 68007  42.9976  72.4762 0001864 265.6875  37.5932 15.95662637  2412
STARLINK-36911          
1 68008U 26039Y   26065.83334490 -.01639716  77635-3 -39101-2 0  9997
2 68008  42.9978  72.4705 0001988 265.2022  40.3260 15.95802381  2417
STARLINK-36956          
1 68009U 26039Z   26065.83334490 -.01623322  76308-3 -38440-2 0  9995
2 68009  42.9975  72.4649 0001838 266.1188  41.5458 15.95928793  2417
STARLINK-36953          
1 68010U 26039AA  26065.83334490 -.01658271  79601-3 -38670-2 0  9992
2 68010  42.9975  72.4529 0001984 265.3385  46.9796 15.96214408  2414
STARLINK-36991          
1 68011U 26039AB  26065.83334490 -.01644972  78528-3 -38093-2 0  9992
2 68011  42.9975  72.4474 0001943 264.9833  49.6185 15.96339910  2410
STARLINK-36936          
1 68012U 26039AC  26065.83334490 -.01647177  78941-3 -37589-2 0  9991
2 68012  42.9975  72.4354 0001937 260.5392  58.5352 15.96607407  2417
STARLINK-36967          
1 68013U 26039AD  26065.83334490 -.01626062  76652-3 -38221-2 0  9993
2 68013  42.9974  72.4587 0001905 265.0294  44.8904 15.96064532  2418
STARLINK-36985          
1 68014U 26039AE  26065.83334490 -.01645049  78642-3 -37820-2 0  9995
2 68014  42.9975  72.4417 0001919 265.5371  51.2277 15.96472266  2410
STARLINK-36335          
1 68015U 26040A   26064.87432845  .00009585  23629-5  99844-5 0  9994
2 68015  97.2861  12.6592 0001327  36.5206 323.6169 16.11618122   723
STARLINK-36923          
1 68016U 26040B   26064.87402716 -.00039361  29942-5 -36910-4 0  9994
2 68016  97.2862  12.6596 0001240  28.7023 331.4329 16.11809964   724
STARLINK-36568          
1 68017U 26040C   26064.99806953  .00028377  27067-5  27876-4 0  9999
2 68017  97.2865  12.7983 0000643  79.3353 280.8005 16.11778226   749
STARLINK-36930          
1 68018U 26040D   26064.99838237  .00026925  26659-5  26870-4 0  9996
2 68018  97.2862  12.7971 0000882  91.8438 268.2948 16.11560084   749
STARLINK-36921          
1 68019U 26040E   26064.99778205  .00013027  24033-5  13001-4 0  9990
2 68019  97.2864  12.7985 0001571 117.0515 243.0930 16.11975695   740
