[{"OBJECT_NAME":"STARLINK-36888","OBJECT_ID":"2026-039U","EPOCH":"2026-03-06T20:00:00.999360","MEAN_MOTION":15.94973987,"ECCENTRICITY":0.0001868,"INCLINATION":42.998,"RA_OF_ASC_NODE":72.5043,"ARG_OF_PERICENTER":263.9158,"MEAN_ANOMALY":28.4108,"EPHEMERIS_TYPE":0,"CLASSIFICATION_TYPE":"U","NORAD_CAT_ID":68004,"ELEMENT_SET_NO":999,"REV_AT_EPOCH":241,"BSTAR":-0.0040461,"MEAN_MOTION_DOT":-0.01622472,"MEAN_MOTION_DDOT":0.00075496},{"OBJECT_NAME":"STARLINK-36910","OBJECT_ID":"2026-039V","EPOCH":"2026-03-06T20:00:00.999360","MEAN_MOTION":15.95255489,"ECCENTRICITY":0.0001926,"INCLINATION":42.9977,"RA_OF_ASC_NODE":72.4921,"ARG_OF_PERICENTER":265.454,"MEAN_ANOMALY":31.543,"EPHEMERIS_TYPE":0,"CLASSIFICATION_TYPE":"U","NORAD_CAT_ID":68005,"ELEMENT_SET_NO":999,"REV_AT_EPOCH":241,"BSTAR":-0.0040108,"MEAN_MOTION_DOT":-0.01632827,"MEAN_MOTION_DDOT":0.00076605},{"OBJECT_NAME":"STARLINK-36889","OBJECT_ID":"2026-039W","EPOCH":"2026-03-06T20:00:00.999360","MEAN_MOTION":15.9552407,"ECCENTRICITY":0.000182,"INCLINATION":42.9978,"RA_OF_ASC_NODE":72.481,"ARG_OF_PERICENTER":267.4205,"MEAN_ANOMALY":33.7414,"EPHEMERIS_TYPE":0,"CLASSIFICATION_TYPE":"U","NORAD_CAT_ID":68006,"ELEMENT_SET_NO":999,"REV_AT_EPOCH":241,"BSTAR":-0.0039316,"MEAN_MOTION_DOT":-0.01624134,"MEAN_MOTION_DDOT":0.00076063},{"OBJECT_NAME":"STARLINK-36592","OBJECT_ID":"2026-039X","EPOCH":"2026-03-06T20:00:00.999360","MEAN_MOTION":15.95662637,"ECCENTRICITY":0.0001864,"INCLINATION":42.9976,"RA_OF_ASC_NODE":72.4762,"ARG_OF_PERICENTER":265.6875,"MEAN_ANOMALY":37.5932,"EPHEMERIS_TYPE":0,"CLASSIFICATION_TYPE":"U","NORAD_CAT_ID":68007,"ELEMENT_SET_NO":999,"REV_AT_EPOCH":241,"BSTAR":-0.0039114,"MEAN_MOTION_DOT":-0.01627942,"MEAN_MOTION_DDOT":0.000765},{"OBJECT_NAME":"STARLINK-36911","OBJECT_ID":"2026-039Y","EPOCH":"2026-03-06T20:00:00.999360","MEAN_MOTION":15.95802381,"ECCENTRICITY":0.0001988,"INCLINATION":42.9978,"RA_OF_ASC_NODE":72.4705,"ARG_OF_PERICENTER":265.2022,"MEAN_ANOMALY":40.326,"EPHEMERIS_TYPE":0,"CLASSIFICATION_TYPE":"U","NORAD_CAT_ID":68008,"ELEMENT_SET_NO":999,"REV_AT_EPOCH":241,"BSTAR":-0.0039101,"MEAN_MOTION_DOT":-0.01639716,"MEAN_MOTION_DDOT":0.00077635},{"OBJECT_NAME":"STARLINK-36956","OBJECT_ID":"2026-039Z","EPOCH":"2026-03-06T20:00:00.999360","MEAN_MOTION":15.95928793,"ECCENTRICITY":0.0001838,"INCLINATION":42.9975,"RA_OF_ASC_NODE":72.4649,"ARG_OF_PERICENTER":266.1188,"MEAN_ANOMALY":41.5458,"EPHEMERIS_TYPE":0,"CLASSIFICATION_TYPE":"U","NORAD_CAT_ID":68009,"ELEMENT_SET_NO":999,"REV_AT_EPOCH":241,"BSTAR":-0.003844,"MEAN_MOTION_DOT":-0.01623322,"MEAN_MOTION_DDOT":0.00076308},{"OBJECT_NAME":"STARLINK-36953","OBJECT_ID":"2026-039AA","EPOCH":"2026-03-06T20:00:00.999360","MEAN_MOTION":15.96214408,"ECCENTRICITY":0.0001984,"INCLINATION":42.9975,"RA_OF_ASC_NODE":72.4529,"ARG_OF_PERICENTER":265.3385,"MEAN_ANOMALY":46.9796,"EPHEMERIS_TYPE":0,"CLASSIFICATION_TYPE":"U","NORAD_CAT_ID":68010,"ELEMENT_SET_NO":999,"REV_AT_EPOCH":241,"BSTAR":-0.003867,"MEAN_MOTION_DOT":-0.01658271,"MEAN_MOTION_DDOT":0.00079601},{"OBJECT_NAME":"STARLINK-36991","OBJECT_ID":"2026-039AB","EPOCH":"2026-03-06T20:00:00.999360","MEAN_MOTION":15.9633991,"ECCENTRICITY":0.0001943,"INCLINATION":42.9975,"RA_OF_ASC_NODE":72.4474,"ARG_OF_PERICENTER":264.9833,"MEAN_ANOMALY":49.6185,"EPHEMERIS_TYPE":0,"CLASSIFICATION_TYPE":"U","NORAD_CAT_ID":68011,"ELEMENT_SET_NO":999,"REV_AT_EPOCH":241,"BSTAR":-0.0038093,"MEAN_MOTION_DOT":-0.01644972,"MEAN_MOTION_DDOT":0.00078528},{"OBJECT_NAME":"STARLINK-36936","OBJECT_ID":"2026-039AC","EPOCH":"2026-03-06T20:00:00.999360","MEAN_MOTION":15.96607407,"ECCENTRICITY":0.0001937,"INCLINATION":42.9975,"RA_OF_ASC_NODE":72.4354,"ARG_OF_PERICENTER":260.5392,"MEAN_ANOMALY":58.5352,"EPHEMERIS_TYPE":0,"CLASSIFICATION_TYPE":"U","NORAD_CAT_ID":68012,"ELEMENT_SET_NO":999,"REV_AT_EPOCH":241,"BSTAR":-0.0037589,"MEAN_MOTION_DOT":-0.01647177,"MEAN_MOTION_DDOT":0.00078941},{"OBJECT_NAME":"STARLINK-36967","OBJECT_ID":"2026-039AD","EPOCH":"2026-03-06T20:00:00.999360","MEAN_MOTION":15.96064532,"ECCENTRICITY":0.0001905,"INCLINATION":42.9974,"RA_OF_ASC_NODE":72.4587,"ARG_OF_PERICENTER":265.0294,"MEAN_ANOMALY":44.8904,"EPHEMERIS_TYPE":0,"CLASSIFICATION_TYPE":"U","NORAD_CAT_ID":68013,"ELEMENT_SET_NO":999,"REV_AT_EPOCH":241,"BSTAR":-0.0038221,"MEAN_MOTION_DOT":-0.01626062,"MEAN_MOTION_DDOT":0.00076652},{"OBJECT_NAME":"STARLINK-36985","OBJECT_ID":"2026-039AE","EPOCH":"2026-03-06T20:00:00.999360","MEAN_MOTION":15.96472266,"ECCENTRICITY":0.0001919,"INCLINATION":42.9975,"RA_OF_ASC_NODE":72.4417,"ARG_OF_PERICENTER":265.5371,"MEAN_ANOMALY":51.2277,"EPHEMERIS_TYPE":0,"CLASSIFICATION_TYPE":"U","NORAD_CAT_ID":68014,"ELEMENT_SET_NO":999,"REV_AT_EPOCH":241,"BSTAR":-0.003782,"MEAN_MOTION_DOT":-0.01645049,"MEAN_MOTION_DDOT":0.00078642},{"OBJECT_NAME":"STARLINK-36335","OBJECT_ID":"2026-040A","EPOCH":"2026-03-05T20:59:01.978080","MEAN_MOTION":16.11618122,"ECCENTRICITY":0.00013275,"INCLINATION":97.2861,"RA_OF_ASC_NODE":12.6592,"ARG_OF_PERICENTER":36.5206,"MEAN_ANOMALY":323.6169,"EPHEMERIS_TYPE":0,"CLASSIFICATION_TYPE":"U","NORAD_CAT_ID":68015,"ELEMENT_SET_NO":999,"REV_AT_EPOCH":72,"BSTAR":9.9844e-6,"MEAN_MOTION_DOT":9.585e-5,"MEAN_MOTION_DDOT":2.362899e-6},{"OBJECT_NAME":"STARLINK-36923","OBJECT_ID":"2026-040B","EPOCH":"2026-03-05T20:58:35.946624","MEAN_MOTION":16.11809964,"ECCENTRICITY":0.00012403,"INCLINATION":97.2862,"RA_OF_ASC_NODE":12.6596,"ARG_OF_PERICENTER":28.7023,"MEAN_ANOMALY":331.4329,"EPHEMERIS_TYPE":0,"CLASSIFICATION_TYPE":"U","NORAD_CAT_ID":68016,"ELEMENT_SET_NO":999,"REV_AT_EPOCH":72,"BSTAR":-3.6909654e-5,"MEAN_MOTION_DOT":-0.00039361,"MEAN_MOTION_DDOT":2.99416e-6},{"OBJECT_NAME":"STARLINK-36568","OBJECT_ID":"2026-040C","EPOCH":"2026-03-05T23:57:13.207392","MEAN_MOTION":16.11778226,"ECCENTRICITY":6.434e-5,"INCLINATION":97.2865,"RA_OF_ASC_NODE":12.7983,"ARG_OF_PERICENTER":79.3353,"MEAN_ANOMALY":280.8005,"EPHEMERIS_TYPE":0,"CLASSIFICATION_TYPE":"U","NORAD_CAT_ID":68017,"ELEMENT_SET_NO":999,"REV_AT_EPOCH":74,"BSTAR":2.7875773e-5,"MEAN_MOTION_DOT":0.00028377,"MEAN_MOTION_DDOT":2.706731e-6},{"OBJECT_NAME":"STARLINK-36930","OBJECT_ID":"2026-040D","EPOCH":"2026-03-05T23:57:40.236768","MEAN_MOTION":16.11560084,"ECCENTRICITY":8.825e-5,"INCLINATION":97.2862,"RA_OF_ASC_NODE":12.7971,"ARG_OF_PERICENTER":91.8438,"MEAN_ANOMALY":268.2948,"EPHEMERIS_TYPE":0,"CLASSIFICATION_TYPE":"U","NORAD_CAT_ID":68018,"ELEMENT_SET_NO":999,"REV_AT_EPOCH":74,"BSTAR":2.6870429e-5,"MEAN_MOTION_DOT":0.00026925,"MEAN_MOTION_DDOT":2.665855e-6},{"OBJECT_NAME":"STARLINK-36921","OBJECT_ID":"2026-040E","EPOCH":"2026-03-05T23:56:48.369120","MEAN_MOTION":16.11975695,"ECCENTRICITY":0.00015715,"INCLINATION":97.2864,"RA_OF_ASC_NODE":12.7985,"ARG_OF_PERICENTER":117.0515,"MEAN_ANOMALY":243.093,"EPHEMERIS_TYPE":0,"CLASSIFICATION_TYPE":"U","NORAD_CAT_ID":68019,"ELEMENT_SET_NO":999,"REV_AT_EPOCH":74,"BSTAR":1.3001081e-5,"MEAN_MOTION_DOT":0.00013027,"MEAN_MOTION_DDOT":2.403282e-6}]
